CCSDS_OMM_VERS = 2.0
CREATION_DATE  = 
ORIGINATOR     = 

OBJECT_NAME    = STARLINK-35343
OBJECT_ID      = 2026-003A
CENTER_NAME    = EARTH
REF_FRAME      = TEME
TIME_SYSTEM    = UTC
MEAN_ELEMENT_THEORY = SGP/SGP4

EPOCH          = 2026-01-27T05:20:06.932544
MEAN_MOTION    = 15.73668691
ECCENTRICITY   = .00019077
INCLINATION    = 42.9978
RA_OF_ASC_NODE = 104.5974
ARG_OF_PERICENTER = 221.3716
MEAN_ANOMALY   = 138.7008

EPHEMERIS_TYPE = 0
CLASSIFICATION_TYPE = U
NORAD_CAT_ID   = 67334
ELEMENT_SET_NO = 999
REV_AT_EPOCH   = 244
BSTAR          = -.15957675E-2
MEAN_MOTION_DOT = -.225367E-2
MEAN_MOTION_DDOT = 0

CCSDS_OMM_VERS = 2.0
CREATION_DATE  = 
ORIGINATOR     = 

OBJECT_NAME    = STARLINK-36486
OBJECT_ID      = 2026-003B
CENTER_NAME    = EARTH
REF_FRAME      = TEME
TIME_SYSTEM    = UTC
MEAN_ELEMENT_THEORY = SGP/SGP4

EPOCH          = 2026-01-27T05:19:38.337600
MEAN_MOTION    = 15.73985999
ECCENTRICITY   = .00018607
INCLINATION    = 42.9974
RA_OF_ASC_NODE = 104.5943
ARG_OF_PERICENTER = 225.1686
MEAN_ANOMALY   = 134.9032

EPHEMERIS_TYPE = 0
CLASSIFICATION_TYPE = U
NORAD_CAT_ID   = 67335
ELEMENT_SET_NO = 999
REV_AT_EPOCH   = 244
BSTAR          = -.57539441E-2
MEAN_MOTION_DOT = -.771428E-2
MEAN_MOTION_DDOT = 0

CCSDS_OMM_VERS = 2.0
CREATION_DATE  = 
ORIGINATOR     = 

OBJECT_NAME    = STARLINK-36480
OBJECT_ID      = 2026-003C
CENTER_NAME    = EARTH
REF_FRAME      = TEME
TIME_SYSTEM    = UTC
MEAN_ELEMENT_THEORY = SGP/SGP4

EPOCH          = 2026-01-27T05:19:08.941728
MEAN_MOTION    = 15.73987289
ECCENTRICITY   = .00019906
INCLINATION    = 42.9970
RA_OF_ASC_NODE = 104.5925
ARG_OF_PERICENTER = 191.6249
MEAN_ANOMALY   = 168.4574

EPHEMERIS_TYPE = 0
CLASSIFICATION_TYPE = U
NORAD_CAT_ID   = 67336
ELEMENT_SET_NO = 999
REV_AT_EPOCH   = 244
BSTAR          = -.58500557E-2
MEAN_MOTION_DOT = -.783279E-2
MEAN_MOTION_DDOT = 0

CCSDS_OMM_VERS = 2.0
CREATION_DATE  = 
ORIGINATOR     = 

OBJECT_NAME    = STARLINK-36410
OBJECT_ID      = 2026-003D
CENTER_NAME    = EARTH
REF_FRAME      = TEME
TIME_SYSTEM    = UTC
MEAN_ELEMENT_THEORY = SGP/SGP4

EPOCH          = 2026-01-27T05:18:40.308768
MEAN_MOTION    = 15.73955132
ECCENTRICITY   = .00015426
INCLINATION    = 42.9978
RA_OF_ASC_NODE = 104.5889
ARG_OF_PERICENTER = 245.5671
MEAN_ANOMALY   = 114.5037

EPHEMERIS_TYPE = 0
CLASSIFICATION_TYPE = U
NORAD_CAT_ID   = 67337
ELEMENT_SET_NO = 999
REV_AT_EPOCH   = 244
BSTAR          = -.58827722E-2
MEAN_MOTION_DOT = -.786146E-2
MEAN_MOTION_DDOT = 0

CCSDS_OMM_VERS = 2.0
CREATION_DATE  = 
ORIGINATOR     = 

OBJECT_NAME    = STARLINK-36413
OBJECT_ID      = 2026-003E
CENTER_NAME    = EARTH
REF_FRAME      = TEME
TIME_SYSTEM    = UTC
MEAN_ELEMENT_THEORY = SGP/SGP4

EPOCH          = 2026-01-27T05:18:10.400544
MEAN_MOTION    = 15.73979911
ECCENTRICITY   = .00027988
INCLINATION    = 42.9971
RA_OF_ASC_NODE = 104.5862
ARG_OF_PERICENTER = 180.1612
MEAN_ANOMALY   = 179.9257

EPHEMERIS_TYPE = 0
CLASSIFICATION_TYPE = U
NORAD_CAT_ID   = 67338
ELEMENT_SET_NO = 999
REV_AT_EPOCH   = 244
BSTAR          = -.58962895E-2
MEAN_MOTION_DOT = -.788951E-2
MEAN_MOTION_DDOT = 0

CCSDS_OMM_VERS = 2.0
CREATION_DATE  = 
ORIGINATOR     = 

OBJECT_NAME    = STARLINK-36451
OBJECT_ID      = 2026-003F
CENTER_NAME    = EARTH
REF_FRAME      = TEME
TIME_SYSTEM    = UTC
MEAN_ELEMENT_THEORY = SGP/SGP4

EPOCH          = 2026-01-27T05:17:40.723008
MEAN_MOTION    = 15.73682798
ECCENTRICITY   = .00020882
INCLINATION    = 42.9975
RA_OF_ASC_NODE = 104.5831
ARG_OF_PERICENTER = 202.2300
MEAN_ANOMALY   = 157.8479

EPHEMERIS_TYPE = 0
CLASSIFICATION_TYPE = U
NORAD_CAT_ID   = 67339
ELEMENT_SET_NO = 999
REV_AT_EPOCH   = 244
BSTAR          = -.1764561E-2
MEAN_MOTION_DOT = -.248637E-2
MEAN_MOTION_DDOT = 0

CCSDS_OMM_VERS = 2.0
CREATION_DATE  = 
ORIGINATOR     = 

OBJECT_NAME    = STARLINK-36339
OBJECT_ID      = 2026-003G
CENTER_NAME    = EARTH
REF_FRAME      = TEME
TIME_SYSTEM    = UTC
MEAN_ELEMENT_THEORY = SGP/SGP4

EPOCH          = 2026-01-27T05:17:10.876992
MEAN_MOTION    = 15.74169339
ECCENTRICITY   = .00049621
INCLINATION    = 42.9977
RA_OF_ASC_NODE = 104.5802
ARG_OF_PERICENTER = 197.0504
MEAN_ANOMALY   = 163.0198

EPHEMERIS_TYPE = 0
CLASSIFICATION_TYPE = U
NORAD_CAT_ID   = 67340
ELEMENT_SET_NO = 999
REV_AT_EPOCH   = 244
BSTAR          = -.45032363E-2
MEAN_MOTION_DOT = -.620513E-2
MEAN_MOTION_DDOT = 0

CCSDS_OMM_VERS = 2.0
CREATION_DATE  = 
ORIGINATOR     = 

OBJECT_NAME    = STARLINK-36453
OBJECT_ID      = 2026-003H
CENTER_NAME    = EARTH
REF_FRAME      = TEME
TIME_SYSTEM    = UTC
MEAN_ELEMENT_THEORY = SGP/SGP4

EPOCH          = 2026-01-27T05:16:43.264416
MEAN_MOTION    = 15.73972056
ECCENTRICITY   = .00016197
INCLINATION    = 42.9980
RA_OF_ASC_NODE = 104.5763
ARG_OF_PERICENTER = 180.8184
MEAN_ANOMALY   = 179.2682

EPHEMERIS_TYPE = 0
CLASSIFICATION_TYPE = U
NORAD_CAT_ID   = 67341
ELEMENT_SET_NO = 999
REV_AT_EPOCH   = 244
BSTAR          = -.63933147E-2
MEAN_MOTION_DOT = -.84858E-2
MEAN_MOTION_DDOT = 0

CCSDS_OMM_VERS = 2.0
CREATION_DATE  = 
ORIGINATOR     = 

OBJECT_NAME    = STARLINK-36432
OBJECT_ID      = 2026-003J
CENTER_NAME    = EARTH
REF_FRAME      = TEME
TIME_SYSTEM    = UTC
MEAN_ELEMENT_THEORY = SGP/SGP4

EPOCH          = 2026-01-27T02:13:27.774912
MEAN_MOTION    = 15.74980182
ECCENTRICITY   = .0005282
INCLINATION    = 42.9978
RA_OF_ASC_NODE = 105.3431
ARG_OF_PERICENTER = 220.8098
MEAN_ANOMALY   = 139.2376

EPHEMERIS_TYPE = 0
CLASSIFICATION_TYPE = U
NORAD_CAT_ID   = 67342
ELEMENT_SET_NO = 999
REV_AT_EPOCH   = 242
BSTAR          = .27085067E-2
MEAN_MOTION_DOT = .436859E-2
MEAN_MOTION_DDOT = 0

CCSDS_OMM_VERS = 2.0
CREATION_DATE  = 
ORIGINATOR     = 

OBJECT_NAME    = STARLINK-36458
OBJECT_ID      = 2026-003K
CENTER_NAME    = EARTH
REF_FRAME      = TEME
TIME_SYSTEM    = UTC
MEAN_ELEMENT_THEORY = SGP/SGP4

EPOCH          = 2026-01-27T03:44:04.089696
MEAN_MOTION    = 15.80226648
ECCENTRICITY   = .00278989
INCLINATION    = 42.9958
RA_OF_ASC_NODE = 104.9566
ARG_OF_PERICENTER = 257.8680
MEAN_ANOMALY   = 101.9065

EPHEMERIS_TYPE = 0
CLASSIFICATION_TYPE = U
NORAD_CAT_ID   = 67343
ELEMENT_SET_NO = 999
REV_AT_EPOCH   = 243
BSTAR          = .453209E-1
MEAN_MOTION_DOT = .11518271E+0
MEAN_MOTION_DDOT = 0

CCSDS_OMM_VERS = 2.0
CREATION_DATE  = 
ORIGINATOR     = 

OBJECT_NAME    = STARLINK-36422
OBJECT_ID      = 2026-003L
CENTER_NAME    = EARTH
REF_FRAME      = TEME
TIME_SYSTEM    = UTC
MEAN_ELEMENT_THEORY = SGP/SGP4

EPOCH          = 2026-01-27T03:43:28.305408
MEAN_MOTION    = 15.79450975
ECCENTRICITY   = .00252925
INCLINATION    = 42.9971
RA_OF_ASC_NODE = 104.9502
ARG_OF_PERICENTER = 255.7006
MEAN_ANOMALY   = 104.1056

EPHEMERIS_TYPE = 0
CLASSIFICATION_TYPE = U
NORAD_CAT_ID   = 67344
ELEMENT_SET_NO = 999
REV_AT_EPOCH   = 243
BSTAR          = .44507479E-1
MEAN_MOTION_DOT = .10711006E+0
MEAN_MOTION_DDOT = 0

CCSDS_OMM_VERS = 2.0
CREATION_DATE  = 
ORIGINATOR     = 

OBJECT_NAME    = STARLINK-35676
OBJECT_ID      = 2026-003M
CENTER_NAME    = EARTH
REF_FRAME      = TEME
TIME_SYSTEM    = UTC
MEAN_ELEMENT_THEORY = SGP/SGP4

EPOCH          = 2026-01-27T05:14:18.997152
MEAN_MOTION    = 15.75728911
ECCENTRICITY   = .00015051
INCLINATION    = 42.9974
RA_OF_ASC_NODE = 104.5639
ARG_OF_PERICENTER = 299.9639
MEAN_ANOMALY   = 60.1081

EPHEMERIS_TYPE = 0
CLASSIFICATION_TYPE = U
NORAD_CAT_ID   = 67345
ELEMENT_SET_NO = 999
REV_AT_EPOCH   = 244
BSTAR          = .30515542E-2
MEAN_MOTION_DOT = .51318E-2
MEAN_MOTION_DDOT = 0

