STARLINK-35343          
1 67334U 26003A   26027.22230246 -.00225367  00000+0 -15958-2 0  9998
2 67334  42.9978 104.5974 0001907 221.3716 138.7008 15.73668691  2442
STARLINK-36486          
1 67335U 26003B   26027.22197150 -.00771428  00000+0 -57539-2 0  9990
2 67335  42.9974 104.5943 0001860 225.1686 134.9032 15.73985999  2449
STARLINK-36480          
1 67336U 26003C   26027.22163127 -.00783279  00000+0 -58501-2 0  9995
2 67336  42.9970 104.5925 0001990 191.6249 168.4574 15.73987289  2449
STARLINK-36410          
1 67337U 26003D   26027.22129987 -.00786146  00000+0 -58828-2 0  9990
2 67337  42.9978 104.5889 0001542 245.5671 114.5037 15.73955132  2446
STARLINK-36413          
1 67338U 26003E   26027.22095371 -.00788951  00000+0 -58963-2 0  9996
2 67338  42.9971 104.5862 0002798 180.1612 179.9257 15.73979911  2444
STARLINK-36451          
1 67339U 26003F   26027.22061022 -.00248637  00000+0 -17646-2 0  9998
2 67339  42.9975 104.5831 0002088 202.2300 157.8479 15.73682798  2442
STARLINK-36339          
1 67340U 26003G   26027.22026478 -.00620513  00000+0 -45032-2 0  9993
2 67340  42.9977 104.5802 0004962 197.0504 163.0198 15.74169339  2443
STARLINK-36453          
1 67341U 26003H   26027.21994519 -.00848580  00000+0 -63933-2 0  9999
2 67341  42.9980 104.5763 0001619 180.8184 179.2682 15.73972056  2448
STARLINK-36432          
1 67342U 26003J   26027.09268258  .00436859  00000+0  27085-2 0  9998
2 67342  42.9978 105.3431 0005282 220.8098 139.2376 15.74980182  2420
STARLINK-36458          
1 67343U 26003K   26027.15560289  .11518271  00000+0  45321-1 0  9998
2 67343  42.9958 104.9566 0027898 257.8680 101.9065 15.80226648  2436
STARLINK-36422          
1 67344U 26003L   26027.15518872  .10711006  00000+0  44507-1 0  9995
2 67344  42.9971 104.9502 0025292 255.7006 104.1056 15.79450975  2432
STARLINK-35676          
1 67345U 26003M   26027.21827543  .00513180  00000+0  30516-2 0  9999
2 67345  42.9974 104.5639 0001505 299.9639  60.1081 15.75728911  2440
